CALSPHERE 1             
1 00900U 64063C   20117.87669681  .00000225  00000-0  23150-3 0  9993
2 00900  90.1577  27.5571 0025253 208.4323 269.1504 13.73362342763373
CALSPHERE 2             
1 00902U 64063E   20117.72489885  .00000040  00000-0  47220-4 0  9995
2 00902  90.1690  30.1723 0016304 255.8173 126.0802 13.52682575553544
LCS 1                   
1 01361U 65034C   20117.64160108 -.00000005  00000-0 -18094-2 0  9997
2 01361  32.1391 101.5540 0004932 291.8401  68.1572  9.89297179987791
TEMPSAT 1               
1 01512U 65065E   20117.80384056  .00000023  00000-0  25507-4 0  9994
2 01512  89.8762 226.7309 0071457  66.1067  52.5750 13.33427190661202
CALSPHERE 4(A)          
1 01520U 65065H   20117.89090727  .00000035  00000-0  51057-4 0  9993
2 01520  90.0315 128.9547 0068402 308.5600 125.9584 13.35811179663318
OPS 5712 (P/L 160)      
1 02826U 67053A   20117.85407082  .00000497  00000-0  14705-3 0  9994
2 02826  69.9279 319.7168 0005323 353.3849   6.7213 14.49045937739469
OPS 5712 (P/L 153)      
1 02874U 67053H   20117.48277390 -.00000007  00000-0  33182-4 0  9992
2 02874  69.9741 239.9658 0009622 237.3095 122.7083 13.96347024693706
SURCAL 150B             
1 02909U 67053J   20117.82043637  .00000635  00000-0  14088-3 0  9993
2 02909  69.9486 345.6440 0002187  60.5935 299.5423 14.61701432749335
RIGIDSPHERE 2 (LCS 4)   
1 05398U 71067E   20118.44283580  .00000149  00000-0  45744-4 0  9994
2 05398  87.6263 238.2181 0065603  81.7022 279.1607 14.33877940552565
